[{"OBJECT_NAME":"ONEWEB-0411","OBJECT_ID":"2022-012B","EPOCH":"2025-07-29T09:39:41.230656","MEAN_MOTION":13.10369901,"ECCENTRICITY":0.0001762,"INCLINATION":87.8801,"RA_OF_ASC_NODE":100.648,"ARG_OF_PERICENTER":57.5913,"MEAN_ANOMALY":302.5384,"EPHEMERIS_TYPE":0,"CLASSIFICATION_TYPE":"U","NORAD_CAT_ID":51623,"ELEMENT_SET_NO":999,"REV_AT_EPOCH":16701,"BSTAR":-0.00071857,"MEAN_MOTION_DOT":-2.38e-6,"MEAN_MOTION_DDOT":0},{"OBJECT_NAME":"ONEWEB-0415","OBJECT_ID":"2022-012C","EPOCH":"2025-07-29T09:34:54.532992","MEAN_MOTION":13.10369938,"ECCENTRICITY":0.0001727,"INCLINATION":87.8798,"RA_OF_ASC_NODE":100.6519,"ARG_OF_PERICENTER":67.1875,"MEAN_ANOMALY":292.9435,"EPHEMERIS_TYPE":0,"CLASSIFICATION_TYPE":"U","NORAD_CAT_ID":51624,"ELEMENT_SET_NO":999,"REV_AT_EPOCH":16701,"BSTAR":-0.00026285,"MEAN_MOTION_DOT":-7.9e-7,"MEAN_MOTION_DDOT":0},{"OBJECT_NAME":"ONEWEB-0416","OBJECT_ID":"2022-012D","EPOCH":"2025-07-29T09:51:37.772640","MEAN_MOTION":13.10371218,"ECCENTRICITY":0.0001763,"INCLINATION":87.8804,"RA_OF_ASC_NODE":100.6682,"ARG_OF_PERICENTER":77.0215,"MEAN_ANOMALY":283.1109,"EPHEMERIS_TYPE":0,"CLASSIFICATION_TYPE":"U","NORAD_CAT_ID":51625,"ELEMENT_SET_NO":999,"REV_AT_EPOCH":16705,"BSTAR":-0.0016275,"MEAN_MOTION_DOT":-5.55e-6,"MEAN_MOTION_DDOT":0},{"OBJECT_NAME":"ONEWEB-0422","OBJECT_ID":"2022-012E","EPOCH":"2025-07-29T13:47:26.449152","MEAN_MOTION":13.17649719,"ECCENTRICITY":0.0002478,"INCLINATION":87.9042,"RA_OF_ASC_NODE":70.0572,"ARG_OF_PERICENTER":77.1368,"MEAN_ANOMALY":283.004,"EPHEMERIS_TYPE":0,"CLASSIFICATION_TYPE":"U","NORAD_CAT_ID":51626,"ELEMENT_SET_NO":999,"REV_AT_EPOCH":17132,"BSTAR":2.6056e-5,"MEAN_MOTION_DOT":2.3e-7,"MEAN_MOTION_DDOT":0},{"OBJECT_NAME":"ONEWEB-0423","OBJECT_ID":"2022-012F","EPOCH":"2025-07-29T13:37:43.312224","MEAN_MOTION":13.17649636,"ECCENTRICITY":0.0001844,"INCLINATION":87.9043,"RA_OF_ASC_NODE":70.0668,"ARG_OF_PERICENTER":84.6194,"MEAN_ANOMALY":275.5147,"EPHEMERIS_TYPE":0,"CLASSIFICATION_TYPE":"U","NORAD_CAT_ID":51627,"ELEMENT_SET_NO":999,"REV_AT_EPOCH":17121,"BSTAR":7.2626e-6,"MEAN_MOTION_DOT":1.6e-7,"MEAN_MOTION_DDOT":0},{"OBJECT_NAME":"ONEWEB-0425","OBJECT_ID":"2022-012G","EPOCH":"2025-07-29T10:05:58.269984","MEAN_MOTION":13.10373968,"ECCENTRICITY":0.0001725,"INCLINATION":87.8806,"RA_OF_ASC_NODE":100.6357,"ARG_OF_PERICENTER":87.4882,"MEAN_ANOMALY":272.6443,"EPHEMERIS_TYPE":0,"CLASSIFICATION_TYPE":"U","NORAD_CAT_ID":51628,"ELEMENT_SET_NO":999,"REV_AT_EPOCH":16705,"BSTAR":-0.002106,"MEAN_MOTION_DOT":-7.22e-6,"MEAN_MOTION_DDOT":0},{"OBJECT_NAME":"ONEWEB-0428","OBJECT_ID":"2022-012H","EPOCH":"2025-07-29T09:37:18.007968","MEAN_MOTION":13.10369919,"ECCENTRICITY":0.0001955,"INCLINATION":87.88,"RA_OF_ASC_NODE":100.6615,"ARG_OF_PERICENTER":73.3457,"MEAN_ANOMALY":286.7885,"EPHEMERIS_TYPE":0,"CLASSIFICATION_TYPE":"U","NORAD_CAT_ID":51629,"ELEMENT_SET_NO":999,"REV_AT_EPOCH":16701,"BSTAR":-0.00061542,"MEAN_MOTION_DOT":-2.02e-6,"MEAN_MOTION_DDOT":0},{"OBJECT_NAME":"ONEWEB-0431","OBJECT_ID":"2022-012J","EPOCH":"2025-07-29T14:23:57.229152","MEAN_MOTION":13.10375477,"ECCENTRICITY":0.0002057,"INCLINATION":87.8804,"RA_OF_ASC_NODE":100.5917,"ARG_OF_PERICENTER":60.8952,"MEAN_ANOMALY":299.2381,"EPHEMERIS_TYPE":0,"CLASSIFICATION_TYPE":"U","NORAD_CAT_ID":51630,"ELEMENT_SET_NO":999,"REV_AT_EPOCH":16709,"BSTAR":0.001442,"MEAN_MOTION_DOT":5.16e-6,"MEAN_MOTION_DDOT":0},{"OBJECT_NAME":"ONEWEB-0434","OBJECT_ID":"2022-012K","EPOCH":"2025-07-29T10:10:44.984064","MEAN_MOTION":13.10374666,"ECCENTRICITY":0.0001747,"INCLINATION":87.8809,"RA_OF_ASC_NODE":100.6698,"ARG_OF_PERICENTER":98.1447,"MEAN_ANOMALY":261.9878,"EPHEMERIS_TYPE":0,"CLASSIFICATION_TYPE":"U","NORAD_CAT_ID":51631,"ELEMENT_SET_NO":999,"REV_AT_EPOCH":16705,"BSTAR":-0.0018971,"MEAN_MOTION_DOT":-6.5e-6,"MEAN_MOTION_DDOT":0},{"OBJECT_NAME":"ONEWEB-0435","OBJECT_ID":"2022-012L","EPOCH":"2025-07-29T17:42:31.555008","MEAN_MOTION":13.10376689,"ECCENTRICITY":0.0002224,"INCLINATION":87.8807,"RA_OF_ASC_NODE":100.6,"ARG_OF_PERICENTER":73.7251,"MEAN_ANOMALY":286.4121,"EPHEMERIS_TYPE":0,"CLASSIFICATION_TYPE":"U","NORAD_CAT_ID":51632,"ELEMENT_SET_NO":999,"REV_AT_EPOCH":16836,"BSTAR":-0.00053408,"MEAN_MOTION_DOT":-1.74e-6,"MEAN_MOTION_DDOT":0},{"OBJECT_NAME":"ONEWEB-0436","OBJECT_ID":"2022-012M","EPOCH":"2025-07-29T20:42:57.313440","MEAN_MOTION":13.17648211,"ECCENTRICITY":0.0001939,"INCLINATION":87.9031,"RA_OF_ASC_NODE":69.9932,"ARG_OF_PERICENTER":77.657,"MEAN_ANOMALY":282.4779,"EPHEMERIS_TYPE":0,"CLASSIFICATION_TYPE":"U","NORAD_CAT_ID":51633,"ELEMENT_SET_NO":999,"REV_AT_EPOCH":17252,"BSTAR":-0.00018106,"MEAN_MOTION_DOT":-5.7e-7,"MEAN_MOTION_DDOT":0},{"OBJECT_NAME":"ONEWEB-0438","OBJECT_ID":"2022-012N","EPOCH":"2025-07-29T09:58:47.826048","MEAN_MOTION":13.10372803,"ECCENTRICITY":0.000175,"INCLINATION":87.8804,"RA_OF_ASC_NODE":100.6647,"ARG_OF_PERICENTER":82.4838,"MEAN_ANOMALY":277.6488,"EPHEMERIS_TYPE":0,"CLASSIFICATION_TYPE":"U","NORAD_CAT_ID":51634,"ELEMENT_SET_NO":999,"REV_AT_EPOCH":16707,"BSTAR":-0.0019196,"MEAN_MOTION_DOT":-6.57e-6,"MEAN_MOTION_DDOT":0},{"OBJECT_NAME":"ONEWEB-0439","OBJECT_ID":"2022-012P","EPOCH":"2025-07-29T10:03:34.587648","MEAN_MOTION":13.10373005,"ECCENTRICITY":0.0001883,"INCLINATION":87.8806,"RA_OF_ASC_NODE":100.6522,"ARG_OF_PERICENTER":78.1586,"MEAN_ANOMALY":281.9752,"EPHEMERIS_TYPE":0,"CLASSIFICATION_TYPE":"U","NORAD_CAT_ID":51635,"ELEMENT_SET_NO":999,"REV_AT_EPOCH":16705,"BSTAR":-0.0018579,"MEAN_MOTION_DOT":-6.36e-6,"MEAN_MOTION_DDOT":0},{"OBJECT_NAME":"ONEWEB-0442","OBJECT_ID":"2022-012Q","EPOCH":"2025-07-29T13:14:38.695200","MEAN_MOTION":13.17649725,"ECCENTRICITY":0.0001326,"INCLINATION":87.9037,"RA_OF_ASC_NODE":70.1086,"ARG_OF_PERICENTER":100.4145,"MEAN_ANOMALY":259.7136,"EPHEMERIS_TYPE":0,"CLASSIFICATION_TYPE":"U","NORAD_CAT_ID":51636,"ELEMENT_SET_NO":999,"REV_AT_EPOCH":17118,"BSTAR":-9.9122e-5,"MEAN_MOTION_DOT":-2.6e-7,"MEAN_MOTION_DDOT":0},{"OBJECT_NAME":"ONEWEB-0443","OBJECT_ID":"2022-012R","EPOCH":"2025-07-29T13:42:35.009856","MEAN_MOTION":13.17649819,"ECCENTRICITY":0.0001917,"INCLINATION":87.903,"RA_OF_ASC_NODE":70.1146,"ARG_OF_PERICENTER":92.8644,"MEAN_ANOMALY":267.2707,"EPHEMERIS_TYPE":0,"CLASSIFICATION_TYPE":"U","NORAD_CAT_ID":51637,"ELEMENT_SET_NO":999,"REV_AT_EPOCH":17123,"BSTAR":5.59e-5,"MEAN_MOTION_DOT":3.5e-7,"MEAN_MOTION_DDOT":0},{"OBJECT_NAME":"ONEWEB-0444","OBJECT_ID":"2022-012S","EPOCH":"2025-07-29T09:49:14.579328","MEAN_MOTION":13.10371627,"ECCENTRICITY":0.0001976,"INCLINATION":87.8801,"RA_OF_ASC_NODE":100.6554,"ARG_OF_PERICENTER":78.8876,"MEAN_ANOMALY":281.2473,"EPHEMERIS_TYPE":0,"CLASSIFICATION_TYPE":"U","NORAD_CAT_ID":51638,"ELEMENT_SET_NO":999,"REV_AT_EPOCH":16706,"BSTAR":-0.0015884,"MEAN_MOTION_DOT":-5.42e-6,"MEAN_MOTION_DDOT":0},{"OBJECT_NAME":"ONEWEB-0445","OBJECT_ID":"2022-012T","EPOCH":"2025-07-29T10:20:18.066624","MEAN_MOTION":13.10375122,"ECCENTRICITY":0.0001647,"INCLINATION":87.88,"RA_OF_ASC_NODE":100.6041,"ARG_OF_PERICENTER":75.723,"MEAN_ANOMALY":284.408,"EPHEMERIS_TYPE":0,"CLASSIFICATION_TYPE":"U","NORAD_CAT_ID":51639,"ELEMENT_SET_NO":999,"REV_AT_EPOCH":16707,"BSTAR":-0.00051862,"MEAN_MOTION_DOT":-1.68e-6,"MEAN_MOTION_DDOT":0}]
