ONEWEB-0411             
1 51623U 22012B   25210.40256054 -.00000238  00000+0 -71857-3 0  9995
2 51623  87.8801 100.6480 0001762  57.5913 302.5384 13.10369901167019
ONEWEB-0415             
1 51624U 22012C   25210.39924228 -.00000079  00000+0 -26285-3 0  9997
2 51624  87.8798 100.6519 0001727  67.1875 292.9435 13.10369938167012
ONEWEB-0416             
1 51625U 22012D   25210.41085385 -.00000555  00000+0 -16275-2 0  9999
2 51625  87.8804 100.6682 0001763  77.0215 283.1109 13.10371218167058
ONEWEB-0422             
1 51626U 22012E   25210.57461168  .00000023  00000+0  26056-4 0  9992
2 51626  87.9042  70.0572 0002478  77.1368 283.0040 13.17649719171325
ONEWEB-0423             
1 51627U 22012F   25210.56786241  .00000016  00000+0  72626-5 0  9991
2 51627  87.9043  70.0668 0001844  84.6194 275.5147 13.17649636171219
ONEWEB-0425             
1 51628U 22012G   25210.42081331 -.00000722  00000+0 -21060-2 0  9994
2 51628  87.8806 100.6357 0001725  87.4882 272.6443 13.10373968167053
ONEWEB-0428             
1 51629U 22012H   25210.40090287 -.00000202  00000+0 -61542-3 0  9996
2 51629  87.8800 100.6615 0001955  73.3457 286.7885 13.10369919167015
ONEWEB-0431             
1 51630U 22012J   25210.59996793  .00000516  00000+0  14420-2 0  9993
2 51630  87.8804 100.5917 0002057  60.8952 299.2381 13.10375477167094
ONEWEB-0434             
1 51631U 22012K   25210.42413176 -.00000650  00000+0 -18971-2 0  9991
2 51631  87.8809 100.6698 0001747  98.1447 261.9878 13.10374666167057
ONEWEB-0435             
1 51632U 22012L   25210.73786522 -.00000174  00000+0 -53408-3 0  9990
2 51632  87.8807 100.6000 0002224  73.7251 286.4121 13.10376689168361
ONEWEB-0436             
1 51633U 22012M   25210.86316335 -.00000057  00000+0 -18106-3 0  9992
2 51633  87.9031  69.9932 0001939  77.6570 282.4779 13.17648211172520
ONEWEB-0438             
1 51634U 22012N   25210.41583132 -.00000657  00000+0 -19196-2 0  9990
2 51634  87.8804 100.6647 0001750  82.4838 277.6488 13.10372803167077
ONEWEB-0439             
1 51635U 22012P   25210.41915032 -.00000636  00000+0 -18579-2 0  9990
2 51635  87.8806 100.6522 0001883  78.1586 281.9752 13.10373005167056
ONEWEB-0442             
1 51636U 22012Q   25210.55183675 -.00000026  00000+0 -99122-4 0  9994
2 51636  87.9037  70.1086 0001326 100.4145 259.7136 13.17649725171182
ONEWEB-0443             
1 51637U 22012R   25210.57123854  .00000035  00000+0  55900-4 0  9994
2 51637  87.9030  70.1146 0001917  92.8644 267.2707 13.17649819171235
ONEWEB-0444             
1 51638U 22012S   25210.40919652 -.00000542  00000+0 -15884-2 0  9996
2 51638  87.8801 100.6554 0001976  78.8876 281.2473 13.10371627167063
ONEWEB-0445             
1 51639U 22012T   25210.43076466 -.00000168  00000+0 -51862-3 0  9998
2 51639  87.8800 100.6041 0001647  75.7230 284.4080 13.10375122167073
